[{"OBJECT_NAME":"STARLINK-32882","OBJECT_ID":"2025-029R","EPOCH":"2026-03-09T17:13:16.718304","MEAN_MOTION":15.30177706,"ECCENTRICITY":9.004e-5,"INCLINATION":53.1598,"RA_OF_ASC_NODE":230.0671,"ARG_OF_PERICENTER":99.2402,"MEAN_ANOMALY":260.87,"EPHEMERIS_TYPE":0,"CLASSIFICATION_TYPE":"U","NORAD_CAT_ID":62963,"ELEMENT_SET_NO":999,"REV_AT_EPOCH":6135,"BSTAR":-5.4998068e-5,"MEAN_MOTION_DOT":-1.986e-5,"MEAN_MOTION_DDOT":0},{"OBJECT_NAME":"GEOSCAN 3 (RS92S3)","OBJECT_ID":"2025-155T","EPOCH":"2026-03-09T22:52:10.587648","MEAN_MOTION":15.31696739,"ECCENTRICITY":0.00068078,"INCLINATION":97.4455,"RA_OF_ASC_NODE":37.9971,"ARG_OF_PERICENTER":154.1387,"MEAN_ANOMALY":206.0196,"EPHEMERIS_TYPE":0,"CLASSIFICATION_TYPE":"U","NORAD_CAT_ID":64893,"ELEMENT_SET_NO":999,"REV_AT_EPOCH":6564,"BSTAR":0.00078414081,"MEAN_MOTION_DOT":0.00023985,"MEAN_MOTION_DDOT":0}]
